start=new Date('2022-06-06T00:00:00.000Z').valueOf();
sats=[{"ARG_OF_PERICENTER":"63.2771","COUNTRY_CODE":"US","CENTER_NAME":"EARTH","CLASSIFICATION_TYPE":"U","RA_OF_ASC_NODE":"89.6823","OBJECT_TYPE":"PAYLOAD","OBJECT_NAME":"STARLINK-1200","SITE":"AFETR","TIME_SYSTEM":"UTC","GP_ID":"205444650","APOAPSIS":"548.545","ECCENTRICITY":"0.00019330","ELEMENT_SET_NO":"999","EPOCH":"2022-06-05T19:40:24.119904","MEAN_ANOMALY":"296.8416","SEMIMAJOR_AXIS":"6925.342","OBJECT_ID":"2020-012D","PERIAPSIS":"545.868","MEAN_MOTION_DOT":"0.00000498","EPHEMERIS_TYPE":"0","BSTAR":"0.00005236300000","NORAD_CAT_ID":"45181","MEAN_MOTION_DDOT":"0.0000000000000","REV_AT_EPOCH":"12791","RCS_SIZE":"LARGE","FILE":"3482995","REF_FRAME":"TEME","LAUNCH_DATE":"2020-02-17","PERIOD":"95.592","MEAN_ELEMENT_THEORY":"SGP4","MEAN_MOTION":"15.06402279","TLE_LINE1":"1 45181U 20012D   22156.81972361  .00000498  00000-0  52363-4 0  9991","DECAY_DATE":null,"TLE_LINE2":"2 45181  53.0579  89.6823 0001933  63.2771 296.8416 15.06402279127910","INCLINATION":"53.0579"},{"CLASSIFICATION_TYPE":"U","OBJECT_NAME":"STARLINK-1201","RA_OF_ASC_NODE":"69.2855","OBJECT_TYPE":"PAYLOAD","SITE":"AFETR","TIME_SYSTEM":"UTC","ARG_OF_PERICENTER":"63.3693","COUNTRY_CODE":"US","CENTER_NAME":"EARTH","EPOCH":"2022-06-05T21:45:08.465472","GP_ID":"205444901","APOAPSIS":"548.465","ECCENTRICITY":"0.00017770","ELEMENT_SET_NO":"999","EPHEMERIS_TYPE":"0","MEAN_MOTION_DOT":"0.00000199","NORAD_CAT_ID":"45182","BSTAR":"0.00003227400000","MEAN_ANOMALY":"296.7477","SEMIMAJOR_AXIS":"6925.369","OBJECT_ID":"2020-012E","PERIAPSIS":"546.004","MEAN_MOTION":"15.06393206","TLE_LINE1":"1 45182U 20012E   22156.90634798  .00000199  00000-0  32274-4 0  9998","MEAN_ELEMENT_THEORY":"SGP4","DECAY_DATE":null,"INCLINATION":"53.0539","TLE_LINE2":"2 45182  53.0539  69.2855 0001777  63.3693 296.7477 15.06393206128057","REV_AT_EPOCH":"12805","MEAN_MOTION_DDOT":"0.0000000000000","FILE":"3482995","RCS_SIZE":"LARGE","LAUNCH_DATE":"2020-02-17","REF_FRAME":"TEME","PERIOD":"95.593"},{"EPOCH":"2022-06-05T12:35:47.418432","GP_ID":"205443649","APOAPSIS":"548.558","ECCENTRICITY":"0.00019290","ELEMENT_SET_NO":"999","CLASSIFICATION_TYPE":"U","OBJECT_NAME":"STARLINK-1202","RA_OF_ASC_NODE":"90.9985","OBJECT_TYPE":"PAYLOAD","SITE":"AFETR","TIME_SYSTEM":"UTC","ARG_OF_PERICENTER":"60.2247","COUNTRY_CODE":"US","CENTER_NAME":"EARTH","MEAN_MOTION":"15.06397342","TLE_LINE1":"1 45183U 20012F   22156.52485438  .00000031  00000-0  20969-4 0  9995","MEAN_ELEMENT_THEORY":"SGP4","DECAY_DATE":null,"INCLINATION":"53.0561","TLE_LINE2":"2 45183  53.0561  90.9985 0001929  60.2247 299.8934 15.06397342127874","REV_AT_EPOCH":"12787","MEAN_MOTION_DDOT":"0.0000000000000","FILE":"3482995","RCS_SIZE":"LARGE","LAUNCH_DATE":"2020-02-17","REF_FRAME":"TEME","PERIOD":"95.592","EPHEMERIS_TYPE":"0","MEAN_MOTION_DOT":"0.00000031","NORAD_CAT_ID":"45183","BSTAR":"0.00002096900000","MEAN_ANOMALY":"299.8934","SEMIMAJOR_AXIS":"6925.357","OBJECT_ID":"2020-012F","PERIAPSIS":"545.886"},{"RCS_SIZE":"LARGE","FILE":"3482995","MEAN_MOTION_DDOT":"0.0000000000000","REV_AT_EPOCH":"12724","PERIOD":"95.592","REF_FRAME":"TEME","LAUNCH_DATE":"2020-02-17","DECAY_DATE":null,"MEAN_ELEMENT_THEORY":"SGP4","TLE_LINE1":"1 45184U 20012G   22156.91371811 -.00000781  00000-0 -33543-4 0  9994","MEAN_MOTION":"15.06398307","TLE_LINE2":"2 45184  53.0577  69.2553 0001787  59.6806 300.4360 15.06398307127242","INCLINATION":"53.0577","SEMIMAJOR_AXIS":"6925.354","MEAN_ANOMALY":"300.4360","PERIAPSIS":"545.981","OBJECT_ID":"2020-012G","BSTAR":"-0.00003354300000","NORAD_CAT_ID":"45184","EPHEMERIS_TYPE":"0","MEAN_MOTION_DOT":"-0.00000781","APOAPSIS":"548.456","ECCENTRICITY":"0.00017870","GP_ID":"205443899","ELEMENT_SET_NO":"999","EPOCH":"2022-06-05T21:55:45.244704","ARG_OF_PERICENTER":"59.6806","CENTER_NAME":"EARTH","COUNTRY_CODE":"US","OBJECT_TYPE":"PAYLOAD","RA_OF_ASC_NODE":"69.2553","OBJECT_NAME":"STARLINK-1205","CLASSIFICATION_TYPE":"U","TIME_SYSTEM":"UTC","SITE":"AFETR"},{"EPOCH":"2022-06-05T12:25:10.665120","GP_ID":"205444151","ECCENTRICITY":"0.00018070","APOAPSIS":"548.493","ELEMENT_SET_NO":"999","CLASSIFICATION_TYPE":"U","OBJECT_NAME":"STARLINK-1216","RA_OF_ASC_NODE":"91.0293","OBJECT_TYPE":"PAYLOAD","SITE":"AFETR","TIME_SYSTEM":"UTC","ARG_OF_PERICENTER":"64.1449","COUNTRY_CODE":"US","CENTER_NAME":"EARTH","TLE_LINE1":"1 45185U 20012H   22156.51748455  .00000027  00000-0  20696-4 0  9999","MEAN_MOTION":"15.06390871","MEAN_ELEMENT_THEORY":"SGP4","DECAY_DATE":null,"INCLINATION":"53.0562","TLE_LINE2":"2 45185  53.0562  91.0293 0001807  64.1449 295.9726 15.06390871127813","MEAN_MOTION_DDOT":"0.0000000000000","REV_AT_EPOCH":"12781","FILE":"3482995","RCS_SIZE":"LARGE","LAUNCH_DATE":"2020-02-17","REF_FRAME":"TEME","PERIOD":"95.593","MEAN_MOTION_DOT":"0.00000027","EPHEMERIS_TYPE":"0","NORAD_CAT_ID":"45185","BSTAR":"0.00002069600000","MEAN_ANOMALY":"295.9726","SEMIMAJOR_AXIS":"6925.377","PERIAPSIS":"545.990","OBJECT_ID":"2020-012H"},{"DECAY_DATE":null,"MEAN_MOTION":"15.06397530","TLE_LINE1":"1 45186U 20012J   22156.20048615  .00001630  00000-0  12831-3 0  9999","MEAN_ELEMENT_THEORY":"SGP4","INCLINATION":"53.0558","TLE_LINE2":"2 45186  53.0558  92.4536 0002204  54.0773 306.0420 15.06397530127762","FILE":"3482995","RCS_SIZE":"LARGE","MEAN_MOTION_DDOT":"0.0000000000000","REV_AT_EPOCH":"12776","PERIOD":"95.592","LAUNCH_DATE":"2020-02-17","REF_FRAME":"TEME","NORAD_CAT_ID":"45186","BSTAR":"0.00012831000000","MEAN_MOTION_DOT":"0.00001630","EPHEMERIS_TYPE":"0","SEMIMAJOR_AXIS":"6925.356","MEAN_ANOMALY":"306.0420","PERIAPSIS":"545.695","OBJECT_ID":"2020-012J","EPOCH":"2022-06-05T04:48:42.003360","APOAPSIS":"548.747","ECCENTRICITY":"0.00022040","GP_ID":"205444402","ELEMENT_SET_NO":"999","OBJECT_NAME":"STARLINK-1224","RA_OF_ASC_NODE":"92.4536","OBJECT_TYPE":"PAYLOAD","CLASSIFICATION_TYPE":"U","TIME_SYSTEM":"UTC","SITE":"AFETR","ARG_OF_PERICENTER":"54.0773","CENTER_NAME":"EARTH","COUNTRY_CODE":"US"},{"OBJECT_NAME":"STARLINK-1225","OBJECT_TYPE":"PAYLOAD","RA_OF_ASC_NODE":"90.9532","CLASSIFICATION_TYPE":"U","TIME_SYSTEM":"UTC","SITE":"AFETR","ARG_OF_PERICENTER":"56.0505","CENTER_NAME":"EARTH","COUNTRY_CODE":"US","EPOCH":"2022-06-05T12:51:43.252992","APOAPSIS":"548.522","ECCENTRICITY":"0.00018480","GP_ID":"205443150","ELEMENT_SET_NO":"999","NORAD_CAT_ID":"45187","BSTAR":"0.00003443600000","MEAN_MOTION_DOT":"0.00000231","EPHEMERIS_TYPE":"0","SEMIMAJOR_AXIS":"6925.377","MEAN_ANOMALY":"304.0659","PERIAPSIS":"545.963","OBJECT_ID":"2020-012K","DECAY_DATE":null,"MEAN_MOTION":"15.06390598","TLE_LINE1":"1 45187U 20012K   22156.53591728  .00000231  00000-0  34436-4 0  9996","MEAN_ELEMENT_THEORY":"SGP4","INCLINATION":"53.0577","TLE_LINE2":"2 45187  53.0577  90.9532 0001848  56.0505 304.0659 15.06390598127861","FILE":"3482995","RCS_SIZE":"LARGE","MEAN_MOTION_DDOT":"0.0000000000000","REV_AT_EPOCH":"12786","PERIOD":"95.593","LAUNCH_DATE":"2020-02-17","REF_FRAME":"TEME"},{"MEAN_ANOMALY":"295.5110","SEMIMAJOR_AXIS":"6925.350","PERIAPSIS":"546.024","OBJECT_ID":"2020-012L","MEAN_MOTION_DOT":"0.00001037","EPHEMERIS_TYPE":"0","NORAD_CAT_ID":"45188","BSTAR":"0.00008853800000","REV_AT_EPOCH":"12748","MEAN_MOTION_DDOT":"0.0000000000000","FILE":"3482700","RCS_SIZE":"LARGE","LAUNCH_DATE":"2020-02-17","REF_FRAME":"TEME","PERIOD":"95.592","MEAN_MOTION":"15.06399451","TLE_LINE1":"1 45188U 20012L   22156.83078804  .00001037  00000-0  88538-4 0  9992","MEAN_ELEMENT_THEORY":"SGP4","DECAY_DATE":null,"INCLINATION":"53.0551","TLE_LINE2":"2 45188  53.0551  49.6357 0001720  64.6057 295.5110 15.06399451127487","ARG_OF_PERICENTER":"64.6057","COUNTRY_CODE":"US","CENTER_NAME":"EARTH","CLASSIFICATION_TYPE":"U","OBJECT_NAME":"STARLINK-1228","RA_OF_ASC_NODE":"49.6357","OBJECT_TYPE":"PAYLOAD","SITE":"AFETR","TIME_SYSTEM":"UTC","GP_ID":"205416710","ECCENTRICITY":"0.00017200","APOAPSIS":"548.406","ELEMENT_SET_NO":"999","EPOCH":"2022-06-05T19:56:20.086656"},{"REF_FRAME":"TEME","LAUNCH_DATE":"2020-02-17","PERIOD":"95.593","MEAN_MOTION_DDOT":"0.0000000000000","REV_AT_EPOCH":"12509","RCS_SIZE":"LARGE","FILE":"3482995","TLE_LINE2":"2 45189  53.0562  90.9362 0001899  63.2090 296.9093 15.06389786125094","INCLINATION":"53.0562","MEAN_ELEMENT_THEORY":"SGP4","TLE_LINE1":"1 45189U 20012M   22156.53960213  .00000060  00000-0  22949-4 0  9993","MEAN_MOTION":"15.06389786","DECAY_DATE":null,"OBJECT_ID":"2020-012M","PERIAPSIS":"545.930","MEAN_ANOMALY":"296.9093","SEMIMAJOR_AXIS":"6925.380","EPHEMERIS_TYPE":"0","MEAN_MOTION_DOT":"0.00000060","BSTAR":"0.00002294900000","NORAD_CAT_ID":"45189","ELEMENT_SET_NO":"999","GP_ID":"205444651","APOAPSIS":"548.560","ECCENTRICITY":"0.00018990","EPOCH":"2022-06-05T12:57:01.624032","COUNTRY_CODE":"US","CENTER_NAME":"EARTH","ARG_OF_PERICENTER":"63.2090","SITE":"AFETR","TIME_SYSTEM":"UTC","CLASSIFICATION_TYPE":"U","RA_OF_ASC_NODE":"90.9362","OBJECT_TYPE":"PAYLOAD","OBJECT_NAME":"STARLINK-1230"},{"OBJECT_NAME":"STARLINK-1234","OBJECT_TYPE":"PAYLOAD","RA_OF_ASC_NODE":"49.6642","CLASSIFICATION_TYPE":"U","TIME_SYSTEM":"UTC","SITE":"AFETR","ARG_OF_PERICENTER":"47.0484","CENTER_NAME":"EARTH","COUNTRY_CODE":"US","EPOCH":"2022-06-05T19:45:43.174368","ECCENTRICITY":"0.00022780","APOAPSIS":"548.809","GP_ID":"205416751","ELEMENT_SET_NO":"999","NORAD_CAT_ID":"45190","BSTAR":"0.00003935000000","EPHEMERIS_TYPE":"0","MEAN_MOTION_DOT":"0.00000304","SEMIMAJOR_AXIS":"6925.366","MEAN_ANOMALY":"313.0696","PERIAPSIS":"545.653","OBJECT_ID":"2020-012N","DECAY_DATE":null,"MEAN_MOTION":"15.06394292","TLE_LINE1":"1 45190U 20012N   22156.82341637  .00000304  00000-0  39350-4 0  9995","MEAN_ELEMENT_THEORY":"SGP4","INCLINATION":"53.0566","TLE_LINE2":"2 45190  53.0566  49.6642 0002278  47.0484 313.0696 15.06394292127495","FILE":"3482687","RCS_SIZE":"LARGE","MEAN_MOTION_DDOT":"0.0000000000000","REV_AT_EPOCH":"12749","PERIOD":"95.593","LAUNCH_DATE":"2020-02-17","REF_FRAME":"TEME"}];
